COSMOS 2361 [-]         
1 25590U 98076A   18113.93243372  .00000039  00000-0  25736-4 0  9997
2 25590  82.9345 246.2988 0032934 100.7673  19.4430 13.72948034968317
COSMOS 2378 [-]         
1 26818U 01023A   18113.92906351  .00000007  00000-0 -86839-5 0  9997
2 26818  82.9252 267.1213 0034350  55.0385 305.3997 13.73925031846208
COSMOS 2389 [-]         
1 27436U 02026A   18113.84082611  .00000030  00000-0  15461-4 0  9990
2 27436  82.9539 211.3474 0044972 284.5320 196.6499 13.74924494798153
COSMOS 2398 [-]         
1 27818U 03023A   18113.89234916  .00000060  00000-0  49298-4 0  9992
2 27818  82.9498 168.0254 0030145 302.0526  57.7700 13.72155859745542
COSMOS 2407 [+]         
1 28380U 04028A   18113.84017594  .00000016  00000-0  73211-6 0  9994
2 28380  82.9575 118.3836 0038079 296.6034  63.1216 13.76052087690728
COSMOS 2414 [+]         
1 28521U 05002A   18114.35672334  .00000036  00000-0  17097-4 0  9990
2 28521  82.9479 133.6059 0040194 170.0589 190.1381 13.87598443671430
COSMOS 2429 [-]         
1 32052U 07038A   18114.47556042  .00000038  00000-0  24343-4 0  9999
2 32052  82.9818 238.4245 0037118 263.2353  96.4578 13.74901986532818
COSMOS 2454 [-]         
1 35635U 09039A   18114.52743623  .00000028  00000-0  99758-5 0  9993
2 35635  82.9535 122.6486 0020332 128.1343 232.1665 13.89625719444296
COSMOS 2463 [+]         
1 36519U 10017A   18113.96457175  .00000045  00000-0  33221-4 0  9995
2 36519  82.9566 275.8825 0037668 106.0671 254.4637 13.71423401400067
